[{"OBJECT_NAME":"STARLINK-3129","OBJECT_ID":"2021-104AX","EPOCH":"2026-02-14T03:58:16.571712","MEAN_MOTION":15.08842852,"ECCENTRICITY":0.00013997,"INCLINATION":53.2185,"RA_OF_ASC_NODE":324.813,"ARG_OF_PERICENTER":93.481,"MEAN_ANOMALY":266.6342,"EPHEMERIS_TYPE":0,"CLASSIFICATION_TYPE":"U","NORAD_CAT_ID":49453,"ELEMENT_SET_NO":999,"REV_AT_EPOCH":23522,"BSTAR":-2.916872e-6,"MEAN_MOTION_DOT":-3.34e-6,"MEAN_MOTION_DDOT":0},{"OBJECT_NAME":"STARLINK-3160","OBJECT_ID":"2021-104AY","EPOCH":"2026-02-14T02:16:11.527968","MEAN_MOTION":15.08843823,"ECCENTRICITY":0.00015506,"INCLINATION":53.2188,"RA_OF_ASC_NODE":325.0466,"ARG_OF_PERICENTER":80.8785,"MEAN_ANOMALY":279.2382,"EPHEMERIS_TYPE":0,"CLASSIFICATION_TYPE":"U","NORAD_CAT_ID":49454,"ELEMENT_SET_NO":999,"REV_AT_EPOCH":23521,"BSTAR":7.8632747e-5,"MEAN_MOTION_DOT":9.64e-6,"MEAN_MOTION_DDOT":0},{"OBJECT_NAME":"STARLINK-3145","OBJECT_ID":"2021-104AZ","EPOCH":"2026-02-14T05:05:46.437792","MEAN_MOTION":15.08837033,"ECCENTRICITY":0.00014535,"INCLINATION":53.2186,"RA_OF_ASC_NODE":324.5166,"ARG_OF_PERICENTER":90.3968,"MEAN_ANOMALY":269.7191,"EPHEMERIS_TYPE":0,"CLASSIFICATION_TYPE":"U","NORAD_CAT_ID":49455,"ELEMENT_SET_NO":999,"REV_AT_EPOCH":23523,"BSTAR":0.00010386322,"MEAN_MOTION_DOT":1.365e-5,"MEAN_MOTION_DDOT":0},{"OBJECT_NAME":"STARLINK-3124","OBJECT_ID":"2021-104BA","EPOCH":"2026-02-14T03:47:41.272512","MEAN_MOTION":15.08761257,"ECCENTRICITY":0.00019679,"INCLINATION":53.2189,"RA_OF_ASC_NODE":324.8095,"ARG_OF_PERICENTER":101.698,"MEAN_ANOMALY":258.4233,"EPHEMERIS_TYPE":0,"CLASSIFICATION_TYPE":"U","NORAD_CAT_ID":49456,"ELEMENT_SET_NO":999,"REV_AT_EPOCH":23522,"BSTAR":0.0010733455,"MEAN_MOTION_DOT":0.00016799,"MEAN_MOTION_DDOT":0},{"OBJECT_NAME":"STARLINK-3132","OBJECT_ID":"2021-104BB","EPOCH":"2026-02-14T00:15:41.885280","MEAN_MOTION":15.08836677,"ECCENTRICITY":0.00012709,"INCLINATION":53.2187,"RA_OF_ASC_NODE":325.4313,"ARG_OF_PERICENTER":104.2087,"MEAN_ANOMALY":255.9046,"EPHEMERIS_TYPE":0,"CLASSIFICATION_TYPE":"U","NORAD_CAT_ID":49457,"ELEMENT_SET_NO":999,"REV_AT_EPOCH":23520,"BSTAR":1.7823013e-5,"MEAN_MOTION_DOT":-4.0e-8,"MEAN_MOTION_DDOT":0},{"OBJECT_NAME":"STARLINK-3156","OBJECT_ID":"2021-104BC","EPOCH":"2026-02-14T03:35:41.074080","MEAN_MOTION":15.08843235,"ECCENTRICITY":0.00012866,"INCLINATION":53.2188,"RA_OF_ASC_NODE":324.7967,"ARG_OF_PERICENTER":90.4446,"MEAN_ANOMALY":269.6694,"EPHEMERIS_TYPE":0,"CLASSIFICATION_TYPE":"U","NORAD_CAT_ID":49458,"ELEMENT_SET_NO":999,"REV_AT_EPOCH":23522,"BSTAR":6.238458e-5,"MEAN_MOTION_DOT":7.05e-6,"MEAN_MOTION_DDOT":0},{"OBJECT_NAME":"STARLINK-3141","OBJECT_ID":"2021-104BD","EPOCH":"2026-02-14T01:44:24.160704","MEAN_MOTION":15.08836712,"ECCENTRICITY":0.00014291,"INCLINATION":53.2189,"RA_OF_ASC_NODE":325.142,"ARG_OF_PERICENTER":108.2512,"MEAN_ANOMALY":251.8635,"EPHEMERIS_TYPE":0,"CLASSIFICATION_TYPE":"U","NORAD_CAT_ID":49459,"ELEMENT_SET_NO":999,"REV_AT_EPOCH":23521,"BSTAR":1.2667248e-5,"MEAN_MOTION_DOT":-8.6e-7,"MEAN_MOTION_DDOT":0},{"OBJECT_NAME":"STARLINK-3140","OBJECT_ID":"2021-104BE","EPOCH":"2026-02-14T00:03:41.774112","MEAN_MOTION":15.08853928,"ECCENTRICITY":0.00016119,"INCLINATION":53.2192,"RA_OF_ASC_NODE":325.4521,"ARG_OF_PERICENTER":106.56,"MEAN_ANOMALY":253.5569,"EPHEMERIS_TYPE":0,"CLASSIFICATION_TYPE":"U","NORAD_CAT_ID":49460,"ELEMENT_SET_NO":999,"REV_AT_EPOCH":23519,"BSTAR":0.00015563484,"MEAN_MOTION_DOT":2.191e-5,"MEAN_MOTION_DDOT":0},{"OBJECT_NAME":"STARLINK-3219","OBJECT_ID":"2021-115A","EPOCH":"2026-02-14T00:07:43.869504","MEAN_MOTION":15.08836024,"ECCENTRICITY":0.00014608,"INCLINATION":53.2168,"RA_OF_ASC_NODE":255.6671,"ARG_OF_PERICENTER":99.019,"MEAN_ANOMALY":261.0968,"EPHEMERIS_TYPE":0,"CLASSIFICATION_TYPE":"U","NORAD_CAT_ID":49724,"ELEMENT_SET_NO":999,"REV_AT_EPOCH":23195,"BSTAR":2.2543371e-5,"MEAN_MOTION_DOT":7.1e-7,"MEAN_MOTION_DDOT":0},{"OBJECT_NAME":"STARLINK-3218","OBJECT_ID":"2021-115B","EPOCH":"2026-02-13T23:04:07.739616","MEAN_MOTION":15.08822682,"ECCENTRICITY":0.00014778,"INCLINATION":53.2167,"RA_OF_ASC_NODE":255.7492,"ARG_OF_PERICENTER":80.64,"MEAN_ANOMALY":279.4759,"EPHEMERIS_TYPE":0,"CLASSIFICATION_TYPE":"U","NORAD_CAT_ID":49725,"ELEMENT_SET_NO":999,"REV_AT_EPOCH":23195,"BSTAR":6.471091e-5,"MEAN_MOTION_DOT":7.42e-6,"MEAN_MOTION_DDOT":0},{"OBJECT_NAME":"STARLINK-3242","OBJECT_ID":"2021-115D","EPOCH":"2026-02-14T01:09:57.723264","MEAN_MOTION":15.08835406,"ECCENTRICITY":0.00014467,"INCLINATION":53.2165,"RA_OF_ASC_NODE":265.2527,"ARG_OF_PERICENTER":88.0459,"MEAN_ANOMALY":272.0699,"EPHEMERIS_TYPE":0,"CLASSIFICATION_TYPE":"U","NORAD_CAT_ID":49727,"ELEMENT_SET_NO":999,"REV_AT_EPOCH":23182,"BSTAR":5.249842e-6,"MEAN_MOTION_DOT":-2.04e-6,"MEAN_MOTION_DDOT":0},{"OBJECT_NAME":"STARLINK-3240","OBJECT_ID":"2021-115E","EPOCH":"2026-02-14T01:15:15.659712","MEAN_MOTION":15.08836493,"ECCENTRICITY":0.00013463,"INCLINATION":53.2167,"RA_OF_ASC_NODE":265.2346,"ARG_OF_PERICENTER":89.2195,"MEAN_ANOMALY":270.8952,"EPHEMERIS_TYPE":0,"CLASSIFICATION_TYPE":"U","NORAD_CAT_ID":49728,"ELEMENT_SET_NO":999,"REV_AT_EPOCH":23182,"BSTAR":6.225534e-6,"MEAN_MOTION_DOT":-1.89e-6,"MEAN_MOTION_DDOT":0},{"OBJECT_NAME":"STARLINK-3251","OBJECT_ID":"2021-115F","EPOCH":"2026-02-14T01:04:38.604864","MEAN_MOTION":15.08836076,"ECCENTRICITY":0.00015527,"INCLINATION":53.2173,"RA_OF_ASC_NODE":265.153,"ARG_OF_PERICENTER":86.9377,"MEAN_ANOMALY":273.1792,"EPHEMERIS_TYPE":0,"CLASSIFICATION_TYPE":"U","NORAD_CAT_ID":49729,"ELEMENT_SET_NO":999,"REV_AT_EPOCH":23182,"BSTAR":4.6481044e-5,"MEAN_MOTION_DOT":4.52e-6,"MEAN_MOTION_DDOT":0},{"OBJECT_NAME":"STARLINK-3249","OBJECT_ID":"2021-115G","EPOCH":"2026-02-14T00:22:17.769216","MEAN_MOTION":15.08841347,"ECCENTRICITY":0.00014362,"INCLINATION":53.2159,"RA_OF_ASC_NODE":265.5922,"ARG_OF_PERICENTER":101.5065,"MEAN_ANOMALY":258.6088,"EPHEMERIS_TYPE":0,"CLASSIFICATION_TYPE":"U","NORAD_CAT_ID":49730,"ELEMENT_SET_NO":999,"REV_AT_EPOCH":23181,"BSTAR":1.8684213e-5,"MEAN_MOTION_DOT":9.0e-8,"MEAN_MOTION_DDOT":0},{"OBJECT_NAME":"STARLINK-3246","OBJECT_ID":"2021-115J","EPOCH":"2026-02-14T00:32:53.322432","MEAN_MOTION":15.08841949,"ECCENTRICITY":0.00016002,"INCLINATION":53.2174,"RA_OF_ASC_NODE":265.5208,"ARG_OF_PERICENTER":105.7839,"MEAN_ANOMALY":254.333,"EPHEMERIS_TYPE":0,"CLASSIFICATION_TYPE":"U","NORAD_CAT_ID":49732,"ELEMENT_SET_NO":999,"REV_AT_EPOCH":23181,"BSTAR":8.2462523e-5,"MEAN_MOTION_DOT":1.025e-5,"MEAN_MOTION_DDOT":0},{"OBJECT_NAME":"STARLINK-3252","OBJECT_ID":"2021-115K","EPOCH":"2026-02-13T22:25:40.914048","MEAN_MOTION":15.08842554,"ECCENTRICITY":0.00015098,"INCLINATION":53.2166,"RA_OF_ASC_NODE":265.7631,"ARG_OF_PERICENTER":82.7463,"MEAN_ANOMALY":277.3701,"EPHEMERIS_TYPE":0,"CLASSIFICATION_TYPE":"U","NORAD_CAT_ID":49733,"ELEMENT_SET_NO":999,"REV_AT_EPOCH":23180,"BSTAR":9.509266e-5,"MEAN_MOTION_DOT":1.226e-5,"MEAN_MOTION_DDOT":0}]
