STARLINK-3129           
1 49453U 21104AX  26045.16546958 -.00000334  00000+0 -29169-5 0  9997
2 49453  53.2185 324.8130 0001399  93.4810 266.6342 15.08842852235225
STARLINK-3160           
1 49454U 21104AY  26045.09457787  .00000964  00000+0  78633-4 0  9997
2 49454  53.2188 325.0466 0001550  80.8785 279.2382 15.08843823235216
STARLINK-3145           
1 49455U 21104AZ  26045.21234303  .00001365  00000+0  10386-3 0  9995
2 49455  53.2186 324.5166 0001453  90.3968 269.7191 15.08837033235237
STARLINK-3124           
1 49456U 21104BA  26045.15811658  .00016799  00000+0  10733-2 0  9995
2 49456  53.2189 324.8095 0001967 101.6980 258.4233 15.08761257235220
STARLINK-3132           
1 49457U 21104BB  26045.01090145 -.00000004  00000+0  17823-4 0  9993
2 49457  53.2187 325.4313 0001270 104.2087 255.9046 15.08836677235204
STARLINK-3156           
1 49458U 21104BC  26045.14978095  .00000705  00000+0  62385-4 0  9997
2 49458  53.2188 324.7967 0001286  90.4446 269.6694 15.08843235235226
STARLINK-3141           
1 49459U 21104BD  26045.07250186 -.00000086  00000+0  12667-4 0  9995
2 49459  53.2189 325.1420 0001429 108.2512 251.8635 15.08836712235217
STARLINK-3140           
1 49460U 21104BE  26045.00256683  .00002191  00000+0  15563-3 0  9993
2 49460  53.2192 325.4521 0001611 106.5600 253.5569 15.08853928235190
STARLINK-3219           
1 49724U 21115A   26045.00536886  .00000071  00000+0  22543-4 0  9996
2 49724  53.2168 255.6671 0001460  99.0190 261.0968 15.08836024231953
STARLINK-3218           
1 49725U 21115B   26044.96120069  .00000742  00000+0  64711-4 0  9991
2 49725  53.2167 255.7492 0001477  80.6400 279.4759 15.08822682231959
STARLINK-3242           
1 49727U 21115D   26045.04858476 -.00000204  00000+0  52498-5 0  9997
2 49727  53.2165 265.2527 0001446  88.0459 272.0699 15.08835406231822
STARLINK-3240           
1 49728U 21115E   26045.05226458 -.00000189  00000+0  62255-5 0  9992
2 49728  53.2167 265.2346 0001346  89.2195 270.8952 15.08836493231828
STARLINK-3251           
1 49729U 21115F   26045.04489126  .00000452  00000+0  46481-4 0  9999
2 49729  53.2173 265.1530 0001552  86.9377 273.1792 15.08836076231820
STARLINK-3249           
1 49730U 21115G   26045.01548344  .00000009  00000+0  18684-4 0  9998
2 49730  53.2159 265.5922 0001436 101.5065 258.6088 15.08841347231816
STARLINK-3246           
1 49732U 21115J   26045.02283938  .00001025  00000+0  82463-4 0  9991
2 49732  53.2174 265.5208 0001600 105.7839 254.3330 15.08841949231811
STARLINK-3252           
1 49733U 21115K   26044.93450132  .00001226  00000+0  95093-4 0  9999
2 49733  53.2166 265.7631 0001509  82.7463 277.3701 15.08842554231809
